[{"OBJECT_NAME":"STARLINK-30494","OBJECT_ID":"2023-151G","EPOCH":"2026-03-09T08:39:06.366240","MEAN_MOTION":15.28417441,"ECCENTRICITY":0.00011553,"INCLINATION":43.0027,"RA_OF_ASC_NODE":192.4566,"ARG_OF_PERICENTER":241.5536,"MEAN_ANOMALY":118.52,"EPHEMERIS_TYPE":0,"CLASSIFICATION_TYPE":"U","NORAD_CAT_ID":57970,"ELEMENT_SET_NO":999,"REV_AT_EPOCH":13740,"BSTAR":-3.569111e-5,"MEAN_MOTION_DOT":-1.272e-5,"MEAN_MOTION_DDOT":0},{"OBJECT_NAME":"STARLINK-35147","OBJECT_ID":"2025-210R","EPOCH":"2026-03-09T21:37:29.317728","MEAN_MOTION":15.3022131,"ECCENTRICITY":8.593e-5,"INCLINATION":53.1607,"RA_OF_ASC_NODE":306.0834,"ARG_OF_PERICENTER":122.8063,"MEAN_ANOMALY":237.3021,"EPHEMERIS_TYPE":0,"CLASSIFICATION_TYPE":"U","NORAD_CAT_ID":65637,"ELEMENT_SET_NO":999,"REV_AT_EPOCH":2776,"BSTAR":0.0011987182,"MEAN_MOTION_DOT":0.00035336,"MEAN_MOTION_DDOT":0}]
